[{"OBJECT_NAME":"CUBEBEL 2 (EU11S)","OBJECT_ID":"2023-091K","EPOCH":"2026-03-09T21:40:29.186112","MEAN_MOTION":15.26706784,"ECCENTRICITY":0.00118653,"INCLINATION":97.517,"RA_OF_ASC_NODE":131.3579,"ARG_OF_PERICENTER":105.889,"MEAN_ANOMALY":254.3657,"EPHEMERIS_TYPE":0,"CLASSIFICATION_TYPE":"U","NORAD_CAT_ID":57175,"ELEMENT_SET_NO":999,"REV_AT_EPOCH":14914,"BSTAR":0.00056688644,"MEAN_MOTION_DOT":0.00014859,"MEAN_MOTION_DDOT":0},{"OBJECT_NAME":"STARLINK-31276","OBJECT_ID":"2024-041B","EPOCH":"2026-03-09T02:00:22.435200","MEAN_MOTION":15.27576361,"ECCENTRICITY":0.00018007,"INCLINATION":42.9993,"RA_OF_ASC_NODE":313.7188,"ARG_OF_PERICENTER":259.0315,"MEAN_ANOMALY":101.0335,"EPHEMERIS_TYPE":0,"CLASSIFICATION_TYPE":"U","NORAD_CAT_ID":59075,"ELEMENT_SET_NO":999,"REV_AT_EPOCH":11423,"BSTAR":-3.7168303e-5,"MEAN_MOTION_DOT":-1.285e-5,"MEAN_MOTION_DDOT":0}]
